THEMIS D                
1 30797U 07004D   26087.82687219 -.00000045  00000+0  00000+0 0  9991
2 30797   6.9062  83.7001 8348023 219.3021 118.6591  0.87835026 40370
